STARLINK-37049
1 68152U 26049L   26092.83971443 -.00887946  00000+0 -54501-2 0  9991
2 68152  97.2841 113.3330 0000849 112.6560 247.4797 15.79489207  3220
